[Satellite]
VERSION=1.1
NAME=CLUSTER II-FM7 (SAMBA)
NICKNAME=CLUSTER II-FM7 (SAMBA)
TLE1=1 26411U 00041B   19319.42542968  .00000000  00000-0  00000+0 0  9991
TLE2=2 26411 131.0886 341.1807 5349379 184.0629   0.7852  0.44224211 20393
STATUS=0
